[{"OBJECT_NAME":"STARLINK-34019","OBJECT_ID":"2025-102L","EPOCH":"2026-03-09T13:04:44.810976","MEAN_MOTION":14.98333004,"ECCENTRICITY":0.00033338,"INCLINATION":70.001,"RA_OF_ASC_NODE":114.6939,"ARG_OF_PERICENTER":268.9305,"MEAN_ANOMALY":91.1472,"EPHEMERIS_TYPE":0,"CLASSIFICATION_TYPE":"U","NORAD_CAT_ID":64032,"ELEMENT_SET_NO":999,"REV_AT_EPOCH":4594,"BSTAR":0.00012630216,"MEAN_MOTION_DOT":1.414e-5,"MEAN_MOTION_DDOT":0},{"OBJECT_NAME":"CZ-6A DEB","OBJECT_ID":"2024-140LQ","EPOCH":"2026-03-09T12:39:56.979648","MEAN_MOTION":14.85929139,"ECCENTRICITY":0.01771612,"INCLINATION":88.9207,"RA_OF_ASC_NODE":273.583,"ARG_OF_PERICENTER":149.2711,"MEAN_ANOMALY":211.9037,"EPHEMERIS_TYPE":0,"CLASSIFICATION_TYPE":"U","NORAD_CAT_ID":60965,"ELEMENT_SET_NO":999,"REV_AT_EPOCH":8358,"BSTAR":0.00081105729,"MEAN_MOTION_DOT":9.447e-5,"MEAN_MOTION_DDOT":0}]
